$$SOE
2459580.500000000, A.D. 2022-Jan-01 00:00:00.0000, 4.115725998394779E+08, 1.711756232386673E+08, 2.647094532680200E+07,
2459587.500000000, A.D. 2022-Jan-08 00:00:00.0000, 4.090659261447745E+08, 1.802949787195283E+08, 2.326432410155445E+07,
2459594.500000000, A.D. 2022-Jan-15 00:00:00.0000, 4.063378890153000E+08, 1.893166413677468E+08, 2.004510018344969E+07,
2459601.500000000, A.D. 2022-Jan-22 00:00:00.0000, 4.033915565096688E+08, 1.982364696530569E+08, 1.681509498651859E+07,
2459608.500000000, A.D. 2022-Jan-29 00:00:00.0000, 4.002300439601599E+08, 2.070504255403430E+08, 1.357610855491823E+07,
2459615.500000000, A.D. 2022-Feb-05 00:00:00.0000, 3.968565092292230E+08, 2.157545718645824E+08, 1.032991981720170E+07,
2459622.500000000, A.D. 2022-Feb-12 00:00:00.0000, 3.932741502993814E+08, 2.243450686468169E+08, 7.078286582761437E+06,
2459629.500000000, A.D. 2022-Feb-19 00:00:00.0000, 3.894862038641438E+08, 2.328181707240075E+08, 3.822945592543855E+06,
2459636.500000000, A.D. 2022-Feb-26 00:00:00.0000, 3.854959436018410E+08, 2.411702259746169E+08, 5.656126826557368E+05,
2459643.500000000, A.D. 2022-Mar-05 00:00:00.0000, 3.813066782860189E+08, 2.493976735275278E+08, -2.692017006619662E+06,
2459650.500000000, A.D. 2022-Mar-12 00:00:00.0000, 3.769217499487950E+08, 2.574970418925276E+08, -5.948268804520801E+06,
2459657.500000000, A.D. 2022-Mar-19 00:00:00.0000, 3.723445321628575E+08, 2.654649470439872E+08, -9.201488272759825E+06,
2459664.500000000, A.D. 2022-Mar-26 00:00:00.0000, 3.675784284592467E+08, 2.732980904551432E+08, -1.245004096244183E+07,
2459671.500000000, A.D. 2022-Apr-02 00:00:00.0000, 3.626268709436936E+08, 2.809932570303822E+08, -1.569231217777345E+07,
2459678.500000000, A.D. 2022-Apr-09 00:00:00.0000, 3.574933193790984E+08, 2.885473129434322E+08, -1.892670677306420E+07,
2459685.500000000, A.D. 2022-Apr-16 00:00:00.0000, 3.521812610871619E+08, 2.959572040375500E+08, -2.215164896425463E+07,
2459692.500000000, A.D. 2022-Apr-23 00:00:00.0000, 3.466942103944241E+08, 3.032199558725072E+08, -2.536558195158468E+07,
2459699.500000000, A.D. 2022-Apr-30 00:00:00.0000, 3.410357057460157E+08, 3.103326731758976E+08, -2.856696736642316E+07,
2459706.500000000, A.D. 2022-May-07 00:00:00.0000, 3.352093075475265E+08, 3.172925367294360E+08, -3.175428498592043E+07,
2459713.500000000, A.D. 2022-May-14 00:00:00.0000, 3.292185981217093E+08, 3.240968007291302E+08, -3.492603259624812E+07,
2459720.500000000, A.D. 2022-May-21 00:00:00.0000, 3.230671817438309E+08, 3.307427913783179E+08, -3.808072575722137E+07,
2459727.500000000, A.D. 2022-May-28 00:00:00.0000, 3.167586842723473E+08, 3.372279057562518E+08, -4.121689750369872E+07,
2459734.500000000, A.D. 2022-Jun-04 00:00:00.0000, 3.102967526483093E+08, 3.435496106510074E+08, -4.433309803573003E+07,
2459741.500000000, A.D. 2022-Jun-11 00:00:00.0000, 3.036850544047443E+08, 3.497054413603703E+08, -4.742789441151498E+07,
2459748.500000000, A.D. 2022-Jun-18 00:00:00.0000, 2.969272772214702E+08, 3.556930004754095E+08, -5.049987024657758E+07,
2459755.500000000, A.D. 2022-Jun-25 00:00:00.0000, 2.900271285517674E+08, 3.615099566149731E+08, -5.354762542549466E+07,
2459762.500000000, A.D. 2022-Jul-02 00:00:00.0000, 2.829883354523058E+08, 3.671540430467238E+08, -5.656977584479141E+07,
2459769.500000000, A.D. 2022-Jul-09 00:00:00.0000, 2.758146450045469E+08, 3.726230563727345E+08, -5.956495320934460E+07,
2459776.500000000, A.D. 2022-Jul-16 00:00:00.0000, 2.685098252706813E+08, 3.779148563618370E+08, -6.253180478960885E+07,
2459783.500000000, A.D. 2022-Jul-23 00:00:00.0000, 2.610776645816438E+08, 3.830273670034749E+08, -6.546899293153210E+07,
2459790.500000000, A.D. 2022-Jul-30 00:00:00.0000, 2.535219692353337E+08, 3.879585754288936E+08, -6.837519460035916E+07,
2459797.500000000, A.D. 2022-Aug-06 00:00:00.0000, 2.458465632008929E+08, 3.927065293504364E+08, -7.124910123589092E+07,
2459804.500000000, A.D. 2022-Aug-13 00:00:00.0000, 2.380552890033283E+08, 3.972693357742204E+08, -7.408941861895324E+07,
2459811.500000000, A.D. 2022-Aug-20 00:00:00.0000, 2.301520082159796E+08, 4.016451604840931E+08, -7.689486664652845E+07,
2459818.500000000, A.D. 2022-Aug-27 00:00:00.0000, 2.221406016271492E+08, 4.058322275723498E+08, -7.966417908190922E+07,
2459825.500000000, A.D. 2022-Sep-03 00:00:00.0000, 2.140249693277559E+08, 4.098288189079859E+08, -8.239610331255011E+07,
2459832.500000000, A.D. 2022-Sep-10 00:00:00.0000, 2.058090308088342E+08, 4.136332735667970E+08, -8.508940012267105E+07,
2459839.500000000, A.D. 2022-Sep-17 00:00:00.0000, 1.974967250964842E+08, 4.172439872215475E+08, -8.774284348402953E+07,
2459846.500000000, A.D. 2022-Sep-24 00:00:00.0000, 1.890920109824731E+08, 4.206594114413201E+08, -9.035522037506591E+07,
2459853.500000000, A.D. 2022-Oct-01 00:00:00.0000, 1.805988675880790E+08, 4.238780528781376E+08, -9.292533065286672E+07,
2459860.500000000, A.D. 2022-Oct-08 00:00:00.0000, 1.720212956664650E+08, 4.268984728639044E+08, -9.545198697357929E+07,
2459867.500000000, A.D. 2022-Oct-15 00:00:00.0000, 1.633633187105180E+08, 4.297192886170908E+08, -9.793401457881010E+07,
2459874.500000000, A.D. 2022-Oct-22 00:00:00.0000, 1.546289816819555E+08, 4.323391743736956E+08, -1.003702508855103E+08,
2459881.500000000, A.D. 2022-Oct-29 00:00:00.0000, 1.458223498556194E+08, 4.347568598502916E+08, -1.027595453208721E+08,
2459888.500000000, A.D. 2022-Nov-05 00:00:00.0000, 1.369475098773228E+08, 4.369711287833412E+08, -1.051007593727219E+08,
2459895.500000000, A.D. 2022-Nov-12 00:00:00.0000, 1.280085710697820E+08, 4.389808188121561E+08, -1.073927665726672E+08,
2459902.500000000, A.D. 2022-Nov-19 00:00:00.0000, 1.190096662652845E+08, 4.407848217511365E+08, -1.096344524244106E+08,
2459909.500000000, A.D. 2022-Nov-26 00:00:00.0000, 1.099549524253372E+08, 4.423820838544017E+08, -1.118247143342981E+08,
2459916.500000000, A.D. 2022-Dec-03 00:00:00.0000, 1.008486112115205E+08, 4.437716060617804E+08, -1.139624615607781E+08,
2459923.500000000, A.D. 2022-Dec-10 00:00:00.0000, 9.169484955116925E+07, 4.449524442452301E+08, -1.160466151857659E+08,
2459930.500000000, A.D. 2022-Dec-17 00:00:00.0000, 8.249790022039817E+07, 4.459237094310690E+08, -1.180761081124344E+08,
2459937.500000000, A.D. 2022-Dec-24 00:00:00.0000, 7.326202255129527E+07, 4.466845679327993E+08, -1.200498851050701E+08,
2459944.500000000, A.D. 2022-Dec-31 00:00:00.0000, 6.399150361806383E+07, 4.472342415032670E+08, -1.219669028955030E+08,
2459951.500000000, A.D. 2023-Jan-07 00:00:00.0000, 5.469066002229241E+07, 4.475720084706807E+08, -1.238261302898442E+08,
2459958.500000000, A.D. 2023-Jan-14 00:00:00.0000, 4.536383830895916E+07, 4.476972063568193E+08, -1.256265480556593E+08,
2459965.500000000, A.D. 2023-Jan-21 00:00:00.0000, 3.601541336602388E+07, 4.476092328043354E+08, -1.273671487895567E+08,
2459972.500000000, A.D. 2023-Jan-28 00:00:00.0000, 2.664978847147411E+07, 4.473075446197689E+08, -1.290469371184826E+08,
2459979.500000000, A.D. 2023-Feb-04 00:00:00.0000, 1.727139677752914E+07, 4.467916579636227E+08, -1.306649299704463E+08,
2459986.500000000, A.D. 2023-Feb-11 00:00:00.0000, 7.884702435540035E+06, 4.460611494951028E+08, -1.322201567668617E+08,
2459993.500000000, A.D. 2023-Feb-18 00:00:00.0000, -1.505798704114539E+06, 4.451156576491896E+08, -1.337116595985269E+08,
2460000.500000000, A.D. 2023-Feb-25 00:00:00.0000, -1.089557855708164E+07, 4.439548838857415E+08, -1.351384934234053E+08,
2460007.500000000, A.D. 2023-Mar-04 00:00:00.0000, -2.028007633547078E+07, 4.425785939312046E+08, -1.364997262950616E+08,
2460014.500000000, A.D. 2023-Mar-11 00:00:00.0000, -2.965469811751439E+07, 4.409866190151504E+08, -1.377944396253393E+08,
2460021.500000000, A.D. 2023-Mar-18 00:00:00.0000, -3.901481641170795E+07, 4.391788570535907E+08, -1.390217284904306E+08,
2460028.500000000, A.D. 2023-Mar-25 00:00:00.0000, -4.835576951455312E+07, 4.371552737327734E+08, -1.401807020032119E+08,
2460035.500000000, A.D. 2023-Apr-01 00:00:00.0000, -5.767286024053003E+07, 4.349159038874838E+08, -1.412704837586882E+08,
2460042.500000000, A.D. 2023-Apr-08 00:00:00.0000, -6.696135464359651E+07, 4.324608543999574E+08, -1.422902121963915E+08,
2460049.500000000, A.D. 2023-Apr-15 00:00:00.0000, -7.621648307084863E+07, 4.297903075141054E+08, -1.432390407561442E+08,
2460056.500000000, A.D. 2023-Apr-22 00:00:00.0000, -8.543344174432504E+07, 4.269045215126604E+08, -1.441161382421058E+08,
2460063.500000000, A.D. 2023-Apr-29 00:00:00.0000, -9.460739214322717E+07, 4.238038310126183E+08, -1.449206894638088E+08,
2460070.500000000, A.D. 2023-May-06 00:00:00.0000, -1.037334599515177E+08, 4.204886486645530E+08, -1.456518958508233E+08,
2460077.500000000, A.D. 2023-May-13 00:00:00.0000, -1.128067345510276E+08, 4.169594673644694E+08, -1.463089760266466E+08,
2460084.500000000, A.D. 2023-May-20 00:00:00.0000, -1.218222688301427E+08, 4.132168624881514E+08, -1.468911664048296E+08,
2460091.500000000, A.D. 2023-May-27 00:00:00.0000, -1.307750791195353E+08, 4.092614941194285E+08, -1.473977218288514E+08,
2460098.500000000, A.D. 2023-Jun-03 00:00:00.0000, -1.396601452028150E+08, 4.050941092990663E+08, -1.478279162602788E+08,
2460105.500000000, A.D. 2023-Jun-10 00:00:00.0000, -1.484724103842378E+08, 4.007155442810971E+08, -1.481810435199168E+08,
2460112.500000000, A.D. 2023-Jun-17 00:00:00.0000, -1.572067815307832E+08, 3.961267267369134E+08, -1.484564180964362E+08,
2460119.500000000, A.D. 2023-Jun-24 00:00:00.0000, -1.658581287754517E+08, 3.913286779629897E+08, -1.486533760487103E+08,
2460126.500000000, A.D. 2023-Jul-01 00:00:00.0000, -1.744212846362206E+08, 3.863225159206314E+08, -1.487712759590739E+08,
2460133.500000000, A.D. 2023-Jul-08 00:00:00.0000, -1.828910442325239E+08, 3.811094599308397E+08, -1.488094997191727E+08,
2460140.500000000, A.D. 2023-Jul-15 00:00:00.0000, -1.912621678824141E+08, 3.756908341949225E+08, -1.487674532642058E+08,
2460147.500000000, A.D. 2023-Jul-22 00:00:00.0000, -1.995293825663278E+08, 3.700680691040341E+08, -1.486445676627568E+08,
$$EOE